{"type": "FeatureCollection", "features": [ {"type": "Feature", "properties": {"norad_id": 66909, "name": "SILVERSAT", "group": "last-30-days", "lat": 5.230518644165224, "lon": 102.42834147547268, "alt_km": 408.54718157341995, "timestamp": "2025-12-21T14:40:46.635618+00:00", "meta": {"OBJECT_NAME": "SILVERSAT", "OBJECT_ID": "1998-067XV", "EPOCH": "2025-12-21T00:44:56.475744", "MEAN_MOTION": 15.52677939, "ECCENTRICITY": 0.0003815, "INCLINATION": 51.6312, "RA_OF_ASC_NODE": 101.1583, "ARG_OF_PERICENTER": 279.3746, "MEAN_ANOMALY": 80.6813, "EPHEMERIS_TYPE": 0, "CLASSIFICATION_TYPE": "U", "NORAD_CAT_ID": 66909, "ELEMENT_SET_NO": 999, "REV_AT_EPOCH": 290, "BSTAR": 0.00085685378, "MEAN_MOTION_DOT": 0.00053716, "MEAN_MOTION_DDOT": 0}, "tle": {"line1": "1 66909U 98067XV  25355.03120921  .00053716  00000+0  85685-3 0  9994", "line2": "2 66909  51.6312 101.1583 0003815 279.3746  80.6813 15.52677939  2905"}}, "geometry": {"type": "Point", "coordinates": [102.42834147547268, 5.230518644165224]}}, {"type": "Feature", "properties": {"norad_id": 66910, "name": "1998-067XW", "group": "last-30-days", "lat": 12.960576218996088, "lon": 108.7538926354224, "alt_km": 409.16892734486555, "timestamp": "2025-12-21T14:40:46.635631+00:00", "meta": {"OBJECT_NAME": "1998-067XW", "OBJECT_ID": "1998-067XW", "EPOCH": "2025-12-21T00:42:22.362336", "MEAN_MOTION": 15.52668327, "ECCENTRICITY": 0.00041762, "INCLINATION": 51.6309, "RA_OF_ASC_NODE": 101.1459, "ARG_OF_PERICENTER": 252.7985, "MEAN_ANOMALY": 107.2548, "EPHEMERIS_TYPE": 0, "CLASSIFICATION_TYPE": "U", "NORAD_CAT_ID": 66910, "ELEMENT_SET_NO": 999, "REV_AT_EPOCH": 290, "BSTAR": 0.00074556419, "MEAN_MOTION_DOT": 0.00046622, "MEAN_MOTION_DDOT": 0}, "tle": {"line1": "1 66910U 98067XW  25355.02942549  .00046622  00000+0  74556-3 0  9996", "line2": "2 66910  51.6309 101.1459 0004176 252.7985 107.2548 15.52668327  2908"}}, "geometry": {"type": "Point", "coordinates": [108.7538926354224, 12.960576218996088]}}, {"type": "Feature", "properties": {"norad_id": 66911, "name": "1998-067XX", "group": "last-30-days", "lat": 24.587284964227845, "lon": 119.47065912174861, "alt_km": 406.3540223876453, "timestamp": "2025-12-21T14:40:46.635641+00:00", "meta": {"OBJECT_NAME": "1998-067XX", "OBJECT_ID": "1998-067XX", "EPOCH": "2025-12-21T00:38:37.983264", "MEAN_MOTION": 15.53092393, "ECCENTRICITY": 0.00038843, "INCLINATION": 51.6313, "RA_OF_ASC_NODE": 101.1286, "ARG_OF_PERICENTER": 257.9049, "MEAN_ANOMALY": 102.1506, "EPHEMERIS_TYPE": 0, "CLASSIFICATION_TYPE": "U", "NORAD_CAT_ID": 66911, "ELEMENT_SET_NO": 999, "REV_AT_EPOCH": 289, "BSTAR": 0.00083173012, "MEAN_MOTION_DOT": 0.00052914, "MEAN_MOTION_DDOT": 0}, "tle": {"line1": "1 66911U 98067XX  25355.02682851  .00052914  00000+0  83173-3 0  9990", "line2": "2 66911  51.6313 101.1286 0003884 257.9049 102.1506 15.53092393  2896"}}, "geometry": {"type": "Point", "coordinates": [119.47065912174861, 24.587284964227845]}}, {"type": "Feature", "properties": {"norad_id": 66912, "name": "1998-067XY", "group": "last-30-days", "lat": -18.36138731389445, "lon": 83.08206325641154, "alt_km": 412.8389893525864, "timestamp": "2025-12-21T14:40:46.635651+00:00", "meta": {"OBJECT_NAME": "1998-067XY", "OBJECT_ID": "1998-067XY", "EPOCH": "2025-12-19T14:52:14.043072", "MEAN_MOTION": 15.51780846, "ECCENTRICITY": 0.0004012, "INCLINATION": 51.6307, "RA_OF_ASC_NODE": 108.231, "ARG_OF_PERICENTER": 260.881, "MEAN_ANOMALY": 99.1725, "EPHEMERIS_TYPE": 0, "CLASSIFICATION_TYPE": "U", "NORAD_CAT_ID": 66912, "ELEMENT_SET_NO": 999, "REV_AT_EPOCH": 267, "BSTAR": 0.00063264, "MEAN_MOTION_DOT": 0.00038197, "MEAN_MOTION_DDOT": 0}, "tle": {"line1": "1 66912U 98067XY  25353.61960698  .00038197  00000+0  63264-3 0  9998", "line2": "2 66912  51.6307 108.2310 0004012 260.8810  99.1725 15.51780846  2678"}}, "geometry": {"type": "Point", "coordinates": [83.08206325641154, -18.36138731389445]}}, {"type": "Feature", "properties": {"norad_id": 66913, "name": "2025-284A", "group": "last-30-days", "lat": -67.20533894602166, "lon": -37.715405991679425, "alt_km": 526.8489046802242, "timestamp": "2025-12-21T14:40:46.635661+00:00", "meta": {"OBJECT_NAME": "2025-284A", "OBJECT_ID": "2025-284A", "EPOCH": "2025-12-18T06:24:29.359008", "MEAN_MOTION": 15.16462178, "ECCENTRICITY": 0.00203688, "INCLINATION": 80.4052, "RA_OF_ASC_NODE": 122.7714, "ARG_OF_PERICENTER": 156.4299, "MEAN_ANOMALY": 203.7866, "EPHEMERIS_TYPE": 0, "CLASSIFICATION_TYPE": "U", "NORAD_CAT_ID": 66913, "ELEMENT_SET_NO": 999, "REV_AT_EPOCH": 196, "BSTAR": 0.00046237905, "MEAN_MOTION_DOT": 9.066e-05, "MEAN_MOTION_DDOT": 0}, "tle": {"line1": "1 66913U 25284A   25352.26700647  .00009066  00000+0  46238-3 0  9991", "line2": "2 66913  80.4052 122.7714 0020368 156.4299 203.7866 15.16462178  1964"}}, "geometry": {"type": "Point", "coordinates": [-37.715405991679425, -67.20533894602166]}}, {"type": "Feature", "properties": {"norad_id": 66914, "name": "2025-284B", "group": "last-30-days", "lat": -50.59423103232348, "lon": 106.63695248483116, "alt_km": 515.6258086792159, "timestamp": "2025-12-21T14:40:46.635673+00:00", "meta": {"OBJECT_NAME": "2025-284B", "OBJECT_ID": "2025-284B", "EPOCH": "2025-12-16T06:51:11.417184", "MEAN_MOTION": 15.18985981, "ECCENTRICITY": 0.00081793, "INCLINATION": 80.4045, "RA_OF_ASC_NODE": 125.2713, "ARG_OF_PERICENTER": 234.9626, "MEAN_ANOMALY": 125.0834, "EPHEMERIS_TYPE": 0, "CLASSIFICATION_TYPE": "U", "NORAD_CAT_ID": 66914, "ELEMENT_SET_NO": 999, "REV_AT_EPOCH": 166, "BSTAR": 0.00038444995, "MEAN_MOTION_DOT": 8.068e-05, "MEAN_MOTION_DDOT": 0}, "tle": {"line1": "1 66914U 25284B   25350.28554881  .00008068  00000+0  38445-3 0  9991", "line2": "2 66914  80.4045 125.2713 0008179 234.9626 125.0834 15.18985981  1668"}}, "geometry": {"type": "Point", "coordinates": [106.63695248483116, -50.59423103232348]}}, {"type": "Feature", "properties": {"norad_id": 66915, "name": "HULIANWANG DIGUI-105", "group": "last-30-days", "lat": 36.325858672905596, "lon": 119.25986840421241, "alt_km": 876.8281950909786, "timestamp": "2025-12-21T14:40:46.635684+00:00", "meta": {"OBJECT_NAME": "HULIANWANG DIGUI-105", "OBJECT_ID": "2025-285A", "EPOCH": "2025-12-21T07:36:18.082080", "MEAN_MOTION": 14.03718221, "ECCENTRICITY": 0.00080505, "INCLINATION": 50.005, "RA_OF_ASC_NODE": 82.3457, "ARG_OF_PERICENTER": 311.3335, "MEAN_ANOMALY": 48.6876, "EPHEMERIS_TYPE": 0, "CLASSIFICATION_TYPE": "U", "NORAD_CAT_ID": 66915, "ELEMENT_SET_NO": 999, "REV_AT_EPOCH": 211, "BSTAR": 0.00010770061, "MEAN_MOTION_DOT": 1.9e-07, "MEAN_MOTION_DDOT": 0}, "tle": {"line1": "1 66915U 25285A   25355.31687595  .00000019  00000+0  10770-3 0  9990", "line2": "2 66915  50.0050  82.3457 0008050 311.3335  48.6876 14.03718221  2112"}}, "geometry": {"type": "Point", "coordinates": [119.25986840421241, 36.325858672905596]}}, {"type": "Feature", "properties": {"norad_id": 66916, "name": "HULIANWANG DIGUI-106", "group": "last-30-days", "lat": 44.08364968371234, "lon": 135.51115436928933, "alt_km": 877.3144746413618, "timestamp": "2025-12-21T14:40:46.635694+00:00", "meta": {"OBJECT_NAME": "HULIANWANG DIGUI-106", "OBJECT_ID": "2025-285B", "EPOCH": "2025-12-21T05:49:37.077600", "MEAN_MOTION": 14.03702999, "ECCENTRICITY": 0.00068282, "INCLINATION": 50.006, "RA_OF_ASC_NODE": 82.6219, "ARG_OF_PERICENTER": 304.3078, "MEAN_ANOMALY": 55.718, "EPHEMERIS_TYPE": 0, "CLASSIFICATION_TYPE": "U", "NORAD_CAT_ID": 66916, "ELEMENT_SET_NO": 999, "REV_AT_EPOCH": 210, "BSTAR": 9.4081348e-05, "MEAN_MOTION_DOT": -3e-08, "MEAN_MOTION_DDOT": 0}, "tle": {"line1": "1 66916U 25285B   25355.24279025 -.00000003  00000+0  94081-4 0  9990", "line2": "2 66916  50.0060  82.6219 0006828 304.3078  55.7180 14.03702999  2101"}}, "geometry": {"type": "Point", "coordinates": [135.51115436928933, 44.08364968371234]}}, {"type": "Feature", "properties": {"norad_id": 66917, "name": "HULIANWANG DIGUI-107", "group": "last-30-days", "lat": 47.56665950394001, "lon": 147.7815549269203, "alt_km": 877.1630022269783, "timestamp": "2025-12-21T14:40:46.635704+00:00", "meta": {"OBJECT_NAME": "HULIANWANG DIGUI-107", "OBJECT_ID": "2025-285C", "EPOCH": "2025-12-21T07:29:29.982912", "MEAN_MOTION": 14.03663053, "ECCENTRICITY": 0.00074918, "INCLINATION": 50.0026, "RA_OF_ASC_NODE": 82.3156, "ARG_OF_PERICENTER": 314.0864, "MEAN_ANOMALY": 45.9424, "EPHEMERIS_TYPE": 0, "CLASSIFICATION_TYPE": "U", "NORAD_CAT_ID": 66917, "ELEMENT_SET_NO": 999, "REV_AT_EPOCH": 211, "BSTAR": 9.1296891e-05, "MEAN_MOTION_DOT": -7e-08, "MEAN_MOTION_DDOT": 0}, "tle": {"line1": "1 66917U 25285C   25355.31215258 -.00000007  00000+0  91297-4 0  9997", "line2": "2 66917  50.0026  82.3156 0007491 314.0864  45.9424 14.03663053  2119"}}, "geometry": {"type": "Point", "coordinates": [147.7815549269203, 47.56665950394001]}}, {"type": "Feature", "properties": {"norad_id": 66918, "name": "HULIANWANG DIGUI-108", "group": "last-30-days", "lat": 48.57773289330527, "lon": 153.1685802767606, "alt_km": 877.5610795889179, "timestamp": "2025-12-21T14:40:46.635714+00:00", "meta": {"OBJECT_NAME": "HULIANWANG DIGUI-108", "OBJECT_ID": "2025-285D", "EPOCH": "2025-12-21T07:28:24.820032", "MEAN_MOTION": 14.03602118, "ECCENTRICITY": 0.00066212, "INCLINATION": 50.0047, "RA_OF_ASC_NODE": 82.3157, "ARG_OF_PERICENTER": 308.6272, "MEAN_ANOMALY": 51.404, "EPHEMERIS_TYPE": 0, "CLASSIFICATION_TYPE": "U", "NORAD_CAT_ID": 66918, "ELEMENT_SET_NO": 999, "REV_AT_EPOCH": 211, "BSTAR": 0.00010282979, "MEAN_MOTION_DOT": 1.1e-07, "MEAN_MOTION_DDOT": 0}, "tle": {"line1": "1 66918U 25285D   25355.31139838  .00000011  00000+0  10283-3 0  9996", "line2": "2 66918  50.0047  82.3157 0006621 308.6272  51.4040 14.03602118  2111"}}, "geometry": {"type": "Point", "coordinates": [153.1685802767606, 48.57773289330527]}}]}